{"fetched_at":"2026-07-18T06:27:45.816Z","source":"https://celestrak.org/NORAD/elements/gp.php?GROUP=oneweb&FORMAT=JSON","constellation":"oneweb","records":[{"OBJECT_NAME":"ONEWEB-0697","OBJECT_ID":"2024-188K","EPOCH":"2026-07-17T21:30:13.412448","CLASSIFICATION_TYPE":"U","MEAN_MOTION":13.1141618,"ECCENTRICITY":0.00025741,"INCLINATION":87.8886,"RA_OF_ASC_NODE":14.9512,"ARG_OF_PERICENTER":96.2722,"MEAN_ANOMALY":263.8699,"EPHEMERIS_TYPE":0,"NORAD_CAT_ID":61603,"ELEMENT_SET_NO":999,"REV_AT_EPOCH":8847,"BSTAR":-0.0013468888,"MEAN_MOTION_DOT":-0.00000465,"MEAN_MOTION_DDOT":0},{"OBJECT_NAME":"ONEWEB-0698","OBJECT_ID":"2024-188L","EPOCH":"2026-07-17T20:58:30.292608","CLASSIFICATION_TYPE":"U","MEAN_MOTION":13.1141545,"ECCENTRICITY":0.00026014,"INCLINATION":87.8884,"RA_OF_ASC_NODE":14.9692,"ARG_OF_PERICENTER":115.831,"MEAN_ANOMALY":244.3086,"EPHEMERIS_TYPE":0,"NORAD_CAT_ID":61604,"ELEMENT_SET_NO":999,"REV_AT_EPOCH":8849,"BSTAR":0.0011104213,"MEAN_MOTION_DOT":0.00000406,"MEAN_MOTION_DDOT":0},{"OBJECT_NAME":"ONEWEB-0699","OBJECT_ID":"2024-188M","EPOCH":"2026-07-17T21:51:48.546720","CLASSIFICATION_TYPE":"U","MEAN_MOTION":13.10372099,"ECCENTRICITY":0.00024673,"INCLINATION":87.8817,"RA_OF_ASC_NODE":30.1426,"ARG_OF_PERICENTER":96.1611,"MEAN_ANOMALY":263.9797,"EPHEMERIS_TYPE":0,"NORAD_CAT_ID":61605,"ELEMENT_SET_NO":999,"REV_AT_EPOCH":8733,"BSTAR":0.0017950877,"MEAN_MOTION_DOT":0.00000639,"MEAN_MOTION_DDOT":0},{"OBJECT_NAME":"ONEWEB-0700","OBJECT_ID":"2024-188N","EPOCH":"2026-07-17T21:54:14.183424","CLASSIFICATION_TYPE":"U","MEAN_MOTION":13.10370103,"ECCENTRICITY":0.00024994,"INCLINATION":87.8834,"RA_OF_ASC_NODE":30.0563,"ARG_OF_PERICENTER":94.4233,"MEAN_ANOMALY":265.718,"EPHEMERIS_TYPE":0,"NORAD_CAT_ID":61606,"ELEMENT_SET_NO":999,"REV_AT_EPOCH":8732,"BSTAR":0.0016912671,"MEAN_MOTION_DOT":0.00000603,"MEAN_MOTION_DDOT":0},{"OBJECT_NAME":"ONEWEB-0701","OBJECT_ID":"2024-188P","EPOCH":"2026-07-17T22:18:40.154688","CLASSIFICATION_TYPE":"U","MEAN_MOTION":13.10369466,"ECCENTRICITY":0.00025904,"INCLINATION":87.8817,"RA_OF_ASC_NODE":30.1392,"ARG_OF_PERICENTER":97.8184,"MEAN_ANOMALY":262.3238,"EPHEMERIS_TYPE":0,"NORAD_CAT_ID":61607,"ELEMENT_SET_NO":999,"REV_AT_EPOCH":8733,"BSTAR":-0.00065374739,"MEAN_MOTION_DOT":-0.00000216,"MEAN_MOTION_DDOT":0},{"OBJECT_NAME":"ONEWEB-0702","OBJECT_ID":"2024-188Q","EPOCH":"2026-07-17T22:04:25.143744","CLASSIFICATION_TYPE":"U","MEAN_MOTION":13.1141878,"ECCENTRICITY":0.00028906,"INCLINATION":87.8906,"RA_OF_ASC_NODE":14.8718,"ARG_OF_PERICENTER":91.537,"MEAN_ANOMALY":268.609,"EPHEMERIS_TYPE":0,"NORAD_CAT_ID":61608,"ELEMENT_SET_NO":999,"REV_AT_EPOCH":8851,"BSTAR":-0.00016927769,"MEAN_MOTION_DOT":-4.7e-7,"MEAN_MOTION_DDOT":0},{"OBJECT_NAME":"ONEWEB-0704","OBJECT_ID":"2024-188R","EPOCH":"2026-07-17T22:01:34.132224","CLASSIFICATION_TYPE":"U","MEAN_MOTION":13.1036969,"ECCENTRICITY":0.00028712,"INCLINATION":87.8821,"RA_OF_ASC_NODE":30.1318,"ARG_OF_PERICENTER":87.6873,"MEAN_ANOMALY":272.4583,"EPHEMERIS_TYPE":0,"NORAD_CAT_ID":61609,"ELEMENT_SET_NO":999,"REV_AT_EPOCH":8731,"BSTAR":0.00109681,"MEAN_MOTION_DOT":0.00000396,"MEAN_MOTION_DDOT":0},{"OBJECT_NAME":"ONEWEB-0705","OBJECT_ID":"2024-188S","EPOCH":"2026-07-17T18:28:59.556864","CLASSIFICATION_TYPE":"U","MEAN_MOTION":13.1036955,"ECCENTRICITY":0.00026384,"INCLINATION":87.882,"RA_OF_ASC_NODE":30.1672,"ARG_OF_PERICENTER":71.9315,"MEAN_ANOMALY":288.21,"EPHEMERIS_TYPE":0,"NORAD_CAT_ID":61610,"ELEMENT_SET_NO":999,"REV_AT_EPOCH":7946,"BSTAR":0.00030420186,"MEAN_MOTION_DOT":0.00000119,"MEAN_MOTION_DDOT":0},{"OBJECT_NAME":"ONEWEB-0706","OBJECT_ID":"2024-188T","EPOCH":"2026-07-17T21:46:55.263648","CLASSIFICATION_TYPE":"U","MEAN_MOTION":13.10371623,"ECCENTRICITY":0.00025022,"INCLINATION":87.8819,"RA_OF_ASC_NODE":30.1432,"ARG_OF_PERICENTER":86.1275,"MEAN_ANOMALY":274.0139,"EPHEMERIS_TYPE":0,"NORAD_CAT_ID":61611,"ELEMENT_SET_NO":999,"REV_AT_EPOCH":8740,"BSTAR":0.0026688257,"MEAN_MOTION_DOT":0.00000944,"MEAN_MOTION_DDOT":0},{"OBJECT_NAME":"ONEWEB-0707","OBJECT_ID":"2024-188U","EPOCH":"2026-07-17T21:56:40.699680","CLASSIFICATION_TYPE":"U","MEAN_MOTION":13.10369288,"ECCENTRICITY":0.00024372,"INCLINATION":87.8822,"RA_OF_ASC_NODE":30.1373,"ARG_OF_PERICENTER":86.9204,"MEAN_ANOMALY":273.2202,"EPHEMERIS_TYPE":0,"NORAD_CAT_ID":61612,"ELEMENT_SET_NO":999,"REV_AT_EPOCH":8734,"BSTAR":0.0015460357,"MEAN_MOTION_DOT":0.00000552,"MEAN_MOTION_DDOT":0},{"OBJECT_NAME":"ONEWEB-0708","OBJECT_ID":"2024-188V","EPOCH":"2026-07-17T22:23:32.165952","CLASSIFICATION_TYPE":"U","MEAN_MOTION":13.10369324,"ECCENTRICITY":0.0001945,"INCLINATION":87.8813,"RA_OF_ASC_NODE":30.1494,"ARG_OF_PERICENTER":71.4771,"MEAN_ANOMALY":288.6567,"EPHEMERIS_TYPE":0,"NORAD_CAT_ID":61613,"ELEMENT_SET_NO":999,"REV_AT_EPOCH":8732,"BSTAR":-0.0010728837,"MEAN_MOTION_DOT":-0.00000362,"MEAN_MOTION_DDOT":0}]}
